{"norad_cat_id":"44528","object_name":"ZY-1 02D","object_id":"2019-059A","object_type":"PAYLOAD","country_code":"PRC","epoch":"2026-05-30T05:23:57.282720","creation_date":"2026-05-30T07:26:56","launch_date":"2019-09-12","decay_date":null,"inclination":98.3202,"eccentricity":0.0001871,"mean_motion":14.35453583,"period":100.317,"semimajor_axis":7151.696,"apoapsis":774.9,"periapsis":772.223,"tle_line0":"0 ZY-1 02D","tle_line1":"1 44528U 19059A   26150.22496855  .00000134  00000-0  61366-4 0  9996","tle_line2":"2 44528  98.3202 212.3447 0001871 136.5173 223.6161 14.35453583351769","fetched_at":"2026-05-30T16:18:06.042337+00:00"}
{"norad_cat_id":"58570","object_name":"OBJECT DB","object_id":"2023-174DB","object_type":"UNKNOWN","country_code":"TBD","epoch":"2026-05-30T05:23:41.882784","creation_date":"2026-05-30T07:36:53","launch_date":"2023-11-11","decay_date":null,"inclination":97.3757,"eccentricity":0.0003655,"mean_motion":15.74408634,"period":91.463,"semimajor_axis":6724.452,"apoapsis":348.774,"periapsis":343.859,"tle_line0":"0 OBJECT DB","tle_line1":"1 58570U 23174DB  26150.22479031  .00134117  00000-0  91606-3 0  9996","tle_line2":"2 58570  97.3757 245.9997 0003655 189.1591 170.9607 15.74408634143339","fetched_at":"2026-05-30T16:18:06.042337+00:00"}
{"norad_cat_id":"63245","object_name":"BUCCANEER MM","object_id":"2025-052AM","object_type":"PAYLOAD","country_code":"AUS","epoch":"2026-05-30T05:23:29.157792","creation_date":"2026-05-30T07:46:57","launch_date":"2025-03-15","decay_date":null,"inclination":97.6891,"eccentricity":0.0002493,"mean_motion":14.94563269,"period":96.349,"semimajor_axis":6961.866,"apoapsis":585.466,"periapsis":581.995,"tle_line0":"0 BUCCANEER MM","tle_line1":"1 63245U 25052AM  26150.22464303  .00004120  00000-0  38617-3 0  9997","tle_line2":"2 63245  97.6891  41.6015 0002493 278.0860  82.0077 14.94563269 65912","fetched_at":"2026-05-30T16:18:06.042337+00:00"}
{"norad_cat_id":"58703","object_name":"TIANMU-1 18","object_id":"2024-004D","object_type":"PAYLOAD","country_code":"PRC","epoch":"2026-05-30T05:23:19.453344","creation_date":"2026-05-30T07:46:57","launch_date":"2024-01-05","decay_date":null,"inclination":97.4656,"eccentricity":0.0005446,"mean_motion":15.268015,"period":94.315,"semimajor_axis":6863.518,"apoapsis":489.121,"periapsis":481.645,"tle_line0":"0 TIANMU-1 18","tle_line1":"1 58703U 24004D   26150.22453071  .00007374  00000-0  28262-3 0  9995","tle_line2":"2 58703  97.4656 336.3941 0005446  66.6522 293.5289 15.26801500133033","fetched_at":"2026-05-30T16:18:06.042337+00:00"}
{"norad_cat_id":"56966","object_name":"NUSAT-42 (M WONENBURGER)","object_id":"2023-084AL","object_type":"PAYLOAD","country_code":"ARGN","epoch":"2026-05-30T05:22:57.015264","creation_date":"2026-05-30T07:36:53","launch_date":"2023-06-12","decay_date":null,"inclination":97.5697,"eccentricity":0.0004798,"mean_motion":15.44491745,"period":93.235,"semimajor_axis":6811.009,"apoapsis":436.142,"periapsis":429.606,"tle_line0":"0 NUSAT-42 (M WONENBURGER)","tle_line1":"1 56966U 23084AL  26150.22427101  .00031352  00000-0  67645-3 0  9997","tle_line2":"2 56966  97.5697 293.5559 0004798 319.5358  40.5533 15.44491745165306","fetched_at":"2026-05-30T16:18:06.042337+00:00"}
{"norad_cat_id":"53698","object_name":"YAOGAN-33 02","object_id":"2022-106A","object_type":"PAYLOAD","country_code":"PRC","epoch":"2026-05-30T05:22:49.347264","creation_date":"2026-05-30T07:36:53","launch_date":"2022-09-02","decay_date":null,"inclination":98.1808,"eccentricity":0.0001587,"mean_motion":14.58718433,"period":98.717,"semimajor_axis":7075.452,"apoapsis":698.44,"periapsis":696.194,"tle_line0":"0 YAOGAN-33 02","tle_line1":"1 53698U 22106A   26150.22418226  .00000183  00000-0  48940-4 0  9994","tle_line2":"2 53698  98.1808 158.3565 0001587 167.2913 192.8326 14.58718433199105","fetched_at":"2026-05-30T16:18:06.042337+00:00"}
{"norad_cat_id":"44312","object_name":"OBJECT C","object_id":"2019-032C","object_type":"UNKNOWN","country_code":"PRC","epoch":"2026-05-30T05:22:25.418784","creation_date":"2026-05-30T07:26:56","launch_date":"2019-06-05","decay_date":null,"inclination":44.9747,"eccentricity":0.0005293,"mean_motion":15.32191817,"period":93.983,"semimajor_axis":6847.411,"apoapsis":472.901,"periapsis":465.652,"tle_line0":"0 OBJECT C","tle_line1":"1 44312U 19032C   26150.22390531  .00016218  00000-0  52023-3 0  9991","tle_line2":"2 44312  44.9747  95.7668 0005293 210.8142 149.2432 15.32191817385086","fetched_at":"2026-05-30T16:18:06.042337+00:00"}
{"norad_cat_id":"64393","object_name":"ZHANGHENG 1-02","object_id":"2025-128A","object_type":"PAYLOAD","country_code":"PRC","epoch":"2026-05-30T05:22:15.447360","creation_date":"2026-05-30T07:46:57","launch_date":"2025-06-14","decay_date":null,"inclination":97.3575,"eccentricity":0.001299,"mean_motion":15.2097284,"period":94.676,"semimajor_axis":6881.042,"apoapsis":511.845,"periapsis":493.968,"tle_line0":"0 ZHANGHENG 1-02","tle_line1":"1 64393U 25128A   26150.22378990 -.00000069  00000-0 -35558-7 0  9997","tle_line2":"2 64393  97.3575 277.4274 0012990 169.8909 190.2591 15.20972840 53192","fetched_at":"2026-05-30T16:18:06.042337+00:00"}
{"norad_cat_id":"64584","object_name":"ICEYE-X53","object_id":"2025-135BJ","object_type":"PAYLOAD","country_code":"FIN","epoch":"2026-05-30T05:22:13.097280","creation_date":"2026-05-30T07:46:57","launch_date":"2025-06-23","decay_date":null,"inclination":97.7401,"eccentricity":0.0001606,"mean_motion":15.00957494,"period":95.939,"semimajor_axis":6942.079,"apoapsis":565.059,"periapsis":562.83,"tle_line0":"0 ICEYE-X53","tle_line1":"1 64584U 25135BJ  26150.22376270  .00005496  00000-0  43563-3 0  9994","tle_line2":"2 64584  97.7401 267.0836 0001606 139.4510 220.6834 15.00957494 51381","fetched_at":"2026-05-30T16:18:06.042337+00:00"}
{"norad_cat_id":"58919","object_name":"OBJECT C","object_id":"2024-024C","object_type":"UNKNOWN","country_code":"TBD","epoch":"2026-05-30T05:22:09.996384","creation_date":"2026-05-30T07:36:53","launch_date":"2024-02-03","decay_date":null,"inclination":97.3157,"eccentricity":0.0005077,"mean_motion":15.77896217,"period":91.261,"semimajor_axis":6714.539,"apoapsis":339.813,"periapsis":332.995,"tle_line0":"0 OBJECT C","tle_line1":"1 58919U 24024C   26150.22372681  .00245735  00000-0  14220-2 0  9996","tle_line2":"2 58919  97.3157 239.0933 0005077 232.6933 127.3871 15.77896217130064","fetched_at":"2026-05-30T16:18:06.042337+00:00"}
{"norad_cat_id":"57654","object_name":"GAOFEN 12 04","object_id":"2023-123A","object_type":"PAYLOAD","country_code":"PRC","epoch":"2026-05-30T05:21:57.891744","creation_date":"2026-05-30T07:36:53","launch_date":"2023-08-20","decay_date":null,"inclination":97.913,"eccentricity":0.0001728,"mean_motion":14.80189643,"period":97.285,"semimajor_axis":7006.863,"apoapsis":629.938,"periapsis":627.517,"tle_line0":"0 GAOFEN 12 04","tle_line1":"1 57654U 23123A   26150.22358671  .00001352  00000-0  18472-3 0  9992","tle_line2":"2 57654  97.9130  68.4992 0001728  90.8129 269.3281 14.80189643149978","fetched_at":"2026-05-30T16:18:06.042337+00:00"}
{"norad_cat_id":"41898","object_name":"TANSAT","object_id":"2016-081A","object_type":"PAYLOAD","country_code":"PRC","epoch":"2026-05-30T05:21:54.066816","creation_date":"2026-05-30T07:26:56","launch_date":"2016-12-21","decay_date":null,"inclination":98.5358,"eccentricity":0.0020826,"mean_motion":14.59933596,"period":98.635,"semimajor_axis":7071.525,"apoapsis":708.118,"periapsis":678.663,"tle_line0":"0 TANSAT","tle_line1":"1 41898U 16081A   26150.22354244  .00000455  00000-0  10517-3 0  9997","tle_line2":"2 41898  98.5358 149.9508 0020826   8.5925 351.5627 14.59933596502003","fetched_at":"2026-05-30T16:18:06.042337+00:00"}
{"norad_cat_id":"648","object_name":"THOR ABLESTAR DEB","object_id":"1961-015GZ","object_type":"DEBRIS","country_code":"US","epoch":"2026-05-30T05:21:37.737216","creation_date":"2026-05-30T07:26:56","launch_date":"1961-06-29","decay_date":null,"inclination":65.8734,"eccentricity":0.0204451,"mean_motion":13.59617945,"period":105.912,"semimajor_axis":7415.218,"apoapsis":1188.688,"periapsis":885.478,"tle_line0":"0 THOR ABLESTAR DEB","tle_line1":"1   648U 61015GZ  26150.22335344  .00001002  00000-0  12670-2 0  9992","tle_line2":"2   648  65.8734  73.9961 0204451 234.7612 278.0863 13.59617945196537","fetched_at":"2026-05-30T16:18:06.042337+00:00"}
{"norad_cat_id":"44879","object_name":"OBJECT A","object_id":"2019-093A","object_type":"UNKNOWN","country_code":"TBD","epoch":"2026-05-30T05:21:34.950816","creation_date":"2026-05-30T07:26:56","launch_date":"2019-12-20","decay_date":null,"inclination":97.7806,"eccentricity":0.001233,"mean_motion":14.95335638,"period":96.299,"semimajor_axis":6959.468,"apoapsis":589.914,"periapsis":572.752,"tle_line0":"0 OBJECT A","tle_line1":"1 44879U 19093A   26150.22332119  .00004003  00000-0  36772-3 0  9996","tle_line2":"2 44879  97.7806 234.1946 0012330 112.0125 248.2407 14.95335638349360","fetched_at":"2026-05-30T16:18:06.042337+00:00"}
{"norad_cat_id":"40715","object_name":"DMC 3-FM1","object_id":"2015-032A","object_type":"PAYLOAD","country_code":"UK","epoch":"2026-05-30T05:21:33.391296","creation_date":"2026-05-30T07:26:56","launch_date":"2015-07-10","decay_date":null,"inclination":97.6489,"eccentricity":0.0006938,"mean_motion":14.85713709,"period":96.923,"semimajor_axis":6989.484,"apoapsis":616.198,"periapsis":606.499,"tle_line0":"0 DMC 3-FM1","tle_line1":"1 40715U 15032A   26150.22330314  .00000322  00000-0  42980-4 0  9994","tle_line2":"2 40715  97.6489  16.1016 0006938 106.3649 253.8330 14.85713709587247","fetched_at":"2026-05-30T16:18:06.042337+00:00"}
